start=new Date('2021-10-26T00:00:00.000Z').valueOf();
sats=[{"RCS_SIZE":"LARGE","MEAN_ELEMENT_THEORY":"SGP4","MEAN_MOTION_DOT":"0.00002470","ARG_OF_PERICENTER":"92.1642","ELEMENT_SET_NO":"999","FILE":"3183453","TLE_LINE2":"2 45548  53.0545  74.8384 0001576  92.1642 267.9527 15.06398156 84416","COUNTRY_CODE":"US","OBJECT_NAME":"STARLINK-1378","SEMIMAJOR_AXIS":"6925.354","SITE":"AFETR","DECAY_DATE":null,"EPHEMERIS_TYPE":"0","APOAPSIS":"548.311","INCLINATION":"53.0545","TLE_LINE1":"1 45548U 20025T   21297.91182603  .00002470  00000-0  18464-3 0  9995","OBJECT_TYPE":"PAYLOAD","MEAN_ANOMALY":"267.9527","NORAD_CAT_ID":"45548","REF_FRAME":"TEME","PERIAPSIS":"546.128","CLASSIFICATION_TYPE":"U","TIME_SYSTEM":"UTC","LAUNCH_DATE":"2020-04-22","MEAN_MOTION_DDOT":"0.0000000000000","MEAN_MOTION":"15.06398156","PERIOD":"95.592","ECCENTRICITY":"0.00015760","REV_AT_EPOCH":"8441","GP_ID":"188141345","BSTAR":"0.00018464000000","EPOCH":"2021-10-24T21:53:01.768992","CENTER_NAME":"EARTH","OBJECT_ID":"2020-025T","RA_OF_ASC_NODE":"74.8384"},{"DECAY_DATE":null,"SITE":"AFETR","EPHEMERIS_TYPE":"0","APOAPSIS":"548.108","FILE":"3183505","OBJECT_NAME":"STARLINK-1379","SEMIMAJOR_AXIS":"6925.355","TLE_LINE2":"2 45549  53.0542  71.8410 0001282  94.9267 265.1868 15.06397850 83932","COUNTRY_CODE":"US","ARG_OF_PERICENTER":"94.9267","RCS_SIZE":"LARGE","MEAN_MOTION_DOT":"-0.00000241","MEAN_ELEMENT_THEORY":"SGP4","ELEMENT_SET_NO":"999","CENTER_NAME":"EARTH","OBJECT_ID":"2020-025U","RA_OF_ASC_NODE":"71.8410","EPOCH":"2021-10-25T13:53:43.016640","ECCENTRICITY":"0.00012820","MEAN_MOTION":"15.06397850","PERIOD":"95.592","GP_ID":"188146327","BSTAR":"0.00000270190000","REV_AT_EPOCH":"8393","OBJECT_TYPE":"PAYLOAD","NORAD_CAT_ID":"45549","MEAN_ANOMALY":"265.1868","INCLINATION":"53.0542","TLE_LINE1":"1 45549U 20025U   21298.57897010 -.00000241  00000-0  27019-5 0  9997","CLASSIFICATION_TYPE":"U","TIME_SYSTEM":"UTC","LAUNCH_DATE":"2020-04-22","MEAN_MOTION_DDOT":"0.0000000000000","REF_FRAME":"TEME","PERIAPSIS":"546.332"},{"RCS_SIZE":"LARGE","MEAN_MOTION_DOT":"-0.00000829","MEAN_ELEMENT_THEORY":"SGP4","ARG_OF_PERICENTER":"87.2936","ELEMENT_SET_NO":"999","SITE":"AFETR","DECAY_DATE":null,"EPHEMERIS_TYPE":"0","APOAPSIS":"548.218","FILE":"3182768","COUNTRY_CODE":"US","TLE_LINE2":"2 45550  53.0552  75.3577 0001419  87.2936 272.8215 15.06392968 84395","SEMIMAJOR_AXIS":"6925.370","OBJECT_NAME":"STARLINK-1390","MEAN_MOTION":"15.06392968","PERIOD":"95.593","ECCENTRICITY":"0.00014190","REV_AT_EPOCH":"8439","BSTAR":"-0.00003677500000","GP_ID":"188104041","TLE_LINE1":"1 45550U 20025V   21297.79660525 -.00000829  00000-0 -36775-4 0  9992","INCLINATION":"53.0552","NORAD_CAT_ID":"45550","OBJECT_TYPE":"PAYLOAD","MEAN_ANOMALY":"272.8215","PERIAPSIS":"546.252","REF_FRAME":"TEME","TIME_SYSTEM":"UTC","LAUNCH_DATE":"2020-04-22","MEAN_MOTION_DDOT":"0.0000000000000","CLASSIFICATION_TYPE":"U","CENTER_NAME":"EARTH","OBJECT_ID":"2020-025V","RA_OF_ASC_NODE":"75.3577","EPOCH":"2021-10-24T19:07:06.693600"},{"MEAN_MOTION":"15.06398842","PERIOD":"95.592","ECCENTRICITY":"0.00012720","REV_AT_EPOCH":"8467","GP_ID":"188102789","BSTAR":"0.00009771900000","INCLINATION":"53.0564","TLE_LINE1":"1 45551U 20025W   21297.73304649  .00001174  00000-0  97719-4 0  9996","NORAD_CAT_ID":"45551","OBJECT_TYPE":"PAYLOAD","MEAN_ANOMALY":"271.1137","REF_FRAME":"TEME","PERIAPSIS":"546.336","CLASSIFICATION_TYPE":"U","LAUNCH_DATE":"2020-04-22","TIME_SYSTEM":"UTC","MEAN_MOTION_DDOT":"0.0000000000000","CENTER_NAME":"EARTH","OBJECT_ID":"2020-025W","RA_OF_ASC_NODE":"55.6487","EPOCH":"2021-10-24T17:35:35.216736","RCS_SIZE":"LARGE","MEAN_MOTION_DOT":"0.00001174","MEAN_ELEMENT_THEORY":"SGP4","ARG_OF_PERICENTER":"88.9997","ELEMENT_SET_NO":"999","SITE":"AFETR","DECAY_DATE":null,"EPHEMERIS_TYPE":"0","APOAPSIS":"548.098","FILE":"3182768","TLE_LINE2":"2 45551  53.0564  55.6487 0001272  88.9997 271.1137 15.06398842 84675","COUNTRY_CODE":"US","OBJECT_NAME":"STARLINK-1294","SEMIMAJOR_AXIS":"6925.352"},{"ECCENTRICITY":"0.00014730","MEAN_MOTION":"15.29507056","PERIOD":"94.148","BSTAR":"0.00381540000000","GP_ID":"188146921","REV_AT_EPOCH":"8425","NORAD_CAT_ID":"45552","OBJECT_TYPE":"PAYLOAD","MEAN_ANOMALY":"257.4233","TLE_LINE1":"1 45552U 20025X   21298.56452437  .00111940  00000-0  38154-2 0  9997","INCLINATION":"53.0587","TIME_SYSTEM":"UTC","LAUNCH_DATE":"2020-04-22","MEAN_MOTION_DDOT":"0.0000000000000","CLASSIFICATION_TYPE":"U","PERIAPSIS":"476.277","REF_FRAME":"TEME","CENTER_NAME":"EARTH","RA_OF_ASC_NODE":"47.4342","OBJECT_ID":"2020-025X","EPOCH":"2021-10-25T13:32:54.905568","ARG_OF_PERICENTER":"102.6931","RCS_SIZE":"LARGE","MEAN_ELEMENT_THEORY":"SGP4","MEAN_MOTION_DOT":"0.00111940","ELEMENT_SET_NO":"999","DECAY_DATE":null,"SITE":"AFETR","APOAPSIS":"478.297","EPHEMERIS_TYPE":"0","FILE":"3183557","SEMIMAJOR_AXIS":"6855.422","OBJECT_NAME":"STARLINK-1322","COUNTRY_CODE":"US","TLE_LINE2":"2 45552  53.0587  47.4342 0001473 102.6931 257.4233 15.29507056 84257"},{"CLASSIFICATION_TYPE":"U","MEAN_MOTION_DDOT":"0.0000000000000","LAUNCH_DATE":"2020-04-22","TIME_SYSTEM":"UTC","REF_FRAME":"TEME","PERIAPSIS":"546.291","OBJECT_TYPE":"PAYLOAD","NORAD_CAT_ID":"45553","MEAN_ANOMALY":"261.1348","INCLINATION":"53.0563","TLE_LINE1":"1 45553U 20025Y   21298.60660930 -.00000012  00000-0  18111-4 0  9993","GP_ID":"188146272","BSTAR":"0.00001811100000","REV_AT_EPOCH":"8420","ECCENTRICITY":"0.00013220","PERIOD":"95.592","MEAN_MOTION":"15.06402153","EPOCH":"2021-10-25T14:33:31.043520","OBJECT_ID":"2020-025Y","RA_OF_ASC_NODE":"51.7213","CENTER_NAME":"EARTH","ELEMENT_SET_NO":"999","ARG_OF_PERICENTER":"98.9790","RCS_SIZE":"LARGE","MEAN_MOTION_DOT":"-0.00000012","MEAN_ELEMENT_THEORY":"SGP4","OBJECT_NAME":"STARLINK-1323","SEMIMAJOR_AXIS":"6925.342","TLE_LINE2":"2 45553  53.0563  51.7213 0001322  98.9790 261.1348 15.06402153 84201","COUNTRY_CODE":"US","FILE":"3183501","APOAPSIS":"548.122","EPHEMERIS_TYPE":"0","DECAY_DATE":null,"SITE":"AFETR"},{"TIME_SYSTEM":"UTC","LAUNCH_DATE":"2020-04-22","MEAN_MOTION_DDOT":"0.0000000000000","CLASSIFICATION_TYPE":"U","PERIAPSIS":"546.301","REF_FRAME":"TEME","OBJECT_TYPE":"PAYLOAD","NORAD_CAT_ID":"45554","MEAN_ANOMALY":"265.0111","TLE_LINE1":"1 45554U 20025Z   21298.59923615 -.00000305  00000-0 -15915-5 0  9990","INCLINATION":"53.0569","BSTAR":"-0.00000159150000","GP_ID":"188146284","REV_AT_EPOCH":"8419","ECCENTRICITY":"0.00013040","PERIOD":"95.592","MEAN_MOTION":"15.06403205","EPOCH":"2021-10-25T14:22:54.003360","RA_OF_ASC_NODE":"51.7598","OBJECT_ID":"2020-025Z","CENTER_NAME":"EARTH","ELEMENT_SET_NO":"999","ARG_OF_PERICENTER":"95.1027","MEAN_MOTION_DOT":"-0.00000305","RCS_SIZE":"LARGE","MEAN_ELEMENT_THEORY":"SGP4","SEMIMAJOR_AXIS":"6925.339","OBJECT_NAME":"STARLINK-1325","COUNTRY_CODE":"US","TLE_LINE2":"2 45554  53.0569  51.7598 0001304  95.1027 265.0111 15.06403205 84194","FILE":"3183502","EPHEMERIS_TYPE":"0","APOAPSIS":"548.107","DECAY_DATE":null,"SITE":"AFETR"},{"ARG_OF_PERICENTER":"85.5140","RCS_SIZE":"LARGE","MEAN_MOTION_DOT":"-0.00000250","MEAN_ELEMENT_THEORY":"SGP4","ELEMENT_SET_NO":"999","DECAY_DATE":null,"SITE":"AFETR","APOAPSIS":"548.169","EPHEMERIS_TYPE":"0","FILE":"3183500","SEMIMAJOR_AXIS":"6925.369","OBJECT_NAME":"STARLINK-1327","COUNTRY_CODE":"US","TLE_LINE2":"2 45555  53.0569  51.9235 0001350  85.5140 274.6003 15.06393269 84199","ECCENTRICITY":"0.00013500","PERIOD":"95.593","MEAN_MOTION":"15.06393269","BSTAR":"0.00000210400000","GP_ID":"188146259","REV_AT_EPOCH":"8419","OBJECT_TYPE":"PAYLOAD","NORAD_CAT_ID":"45555","MEAN_ANOMALY":"274.6003","TLE_LINE1":"1 45555U 20025AA  21298.56238589 -.00000250  00000-0  21040-5 0  9991","INCLINATION":"53.0569","MEAN_MOTION_DDOT":"0.0000000000000","LAUNCH_DATE":"2020-04-22","TIME_SYSTEM":"UTC","CLASSIFICATION_TYPE":"U","PERIAPSIS":"546.299","REF_FRAME":"TEME","CENTER_NAME":"EARTH","RA_OF_ASC_NODE":"51.9235","OBJECT_ID":"2020-025AA","EPOCH":"2021-10-25T13:29:50.140896"},{"ARG_OF_PERICENTER":"87.8620","MEAN_MOTION_DOT":"0.00001664","RCS_SIZE":"LARGE","MEAN_ELEMENT_THEORY":"SGP4","ELEMENT_SET_NO":"999","FILE":"3183530","OBJECT_NAME":"STARLINK-1334","SEMIMAJOR_AXIS":"6925.334","TLE_LINE2":"2 45556  53.0559  51.7398 0001374  87.8620 272.2526 15.06404874 84202","COUNTRY_CODE":"US","DECAY_DATE":null,"SITE":"AFETR","EPHEMERIS_TYPE":"0","APOAPSIS":"548.150","MEAN_ANOMALY":"272.2526","OBJECT_TYPE":"PAYLOAD","NORAD_CAT_ID":"45556","INCLINATION":"53.0559","TLE_LINE1":"1 45556U 20025AB  21298.60293200  .00001664  00000-0  13055-3 0  9992","CLASSIFICATION_TYPE":"U","TIME_SYSTEM":"UTC","LAUNCH_DATE":"2020-04-22","MEAN_MOTION_DDOT":"0.0000000000000","REF_FRAME":"TEME","PERIAPSIS":"546.247","ECCENTRICITY":"0.00013740","PERIOD":"95.592","MEAN_MOTION":"15.06404874","GP_ID":"188146952","BSTAR":"0.00013055000000","REV_AT_EPOCH":"8420","EPOCH":"2021-10-25T14:28:13.324800","CENTER_NAME":"EARTH","RA_OF_ASC_NODE":"51.7398","OBJECT_ID":"2020-025AB"},{"ELEMENT_SET_NO":"999","ARG_OF_PERICENTER":"93.9363","RCS_SIZE":"LARGE","MEAN_MOTION_DOT":"-0.00000254","MEAN_ELEMENT_THEORY":"SGP4","APOAPSIS":"548.135","EPHEMERIS_TYPE":"0","DECAY_DATE":null,"SITE":"AFETR","SEMIMAJOR_AXIS":"6925.372","OBJECT_NAME":"STARLINK-1336","COUNTRY_CODE":"US","TLE_LINE2":"2 45557  53.0566  51.7064 0001297  93.9363 266.1774 15.06392342 84200","FILE":"3183593","BSTAR":"0.00000183120000","GP_ID":"188147903","REV_AT_EPOCH":"8420","ECCENTRICITY":"0.00012970","PERIOD":"95.593","MEAN_MOTION":"15.06392342","TIME_SYSTEM":"UTC","LAUNCH_DATE":"2020-04-22","MEAN_MOTION_DDOT":"0.0000000000000","CLASSIFICATION_TYPE":"U","PERIAPSIS":"546.339","REF_FRAME":"TEME","OBJECT_TYPE":"PAYLOAD","MEAN_ANOMALY":"266.1774","NORAD_CAT_ID":"45557","TLE_LINE1":"1 45557U 20025AC  21298.61030604 -.00000254  00000-0  18312-5 0  9999","INCLINATION":"53.0566","OBJECT_ID":"2020-025AC","RA_OF_ASC_NODE":"51.7064","CENTER_NAME":"EARTH","EPOCH":"2021-10-25T14:38:50.441856"}];
